DRAGONFLY               
1 65729U 98067XH  26018.79104327  .00485553  10323-3  13893-2 0  9997
2 65729  51.6191 303.6059 0007837 140.6202 219.5376 15.92585814 19023
1998-067XK              
1 65731U 98067XK  26018.84334452  .00142537  00000+0  93298-3 0  9997
2 65731  51.6277 307.7913 0004610 104.5019 255.6492 15.74827939 18976
RSP-03                  
1 65732U 98067XL  26018.86742015  .00245727  00000+0  11567-2 0  9991
2 65732  51.6242 305.6665 0005716 119.2626 240.8948 15.81853633 19011
GHS-01                  
1 65733U 98067XM  26018.26911067  .01674902  21642-2  16376-2 0  9994
2 65733  51.6192 303.8460 0007470 164.4307 195.6938 16.11253535 18986
YOTSUBA-KULOVER         
1 65941U 98067XN  26018.87552042  .00085937  00000+0  83726-3 0  9995
2 65941  51.6288 312.5215 0004244 125.7424 234.3967 15.65496146 15664
BOTAN                   
1 65942U 98067XP  26018.88501368  .00162089  00000+0  11467-2 0  9998
2 65942  51.6260 310.3198 0004986 128.6435 231.5010 15.72952020 15695
E-KAGAKU-1              
1 65943U 98067XQ  26018.81164204  .00086350  00000+0  84263-3 0  9997
2 65943  51.6302 312.8524 0002777 128.8646 231.2598 15.65459467 15658
HRC MONOBLOCK CAMERA    
1 66052U 98067XR  26018.52752963  .00036734  00000+0  50520-3 0  9992
2 66052  51.6309 317.6988 0000995  19.7429 340.3601 15.56912627 14569
HTV-X1                  
1 66174U 25241A   26018.88513458  .00012847  00000+0  23754-3 0  9992
2 66174  51.6336 318.5838 0007801  33.5888 326.5594 15.49391154   519
SZ-21 MODULE            
1 66515U 25246C   26018.77682407  .00028118  00000+0  28387-3 0  9990
2 66515  41.4757 149.7378 0002609 199.7811 160.2929 15.64704861 10243
SHENZHOU-22             
1 66645U 25272A   26018.71907286  .00021350  00000+0  25294-3 0  9997
2 66645  41.4661 151.9452 0010993 311.4240  48.5654 15.60657147267644
SOYUZ-MS 28             
1 66664U 25275A   26018.88513458  .00012847  00000+0  23754-3 0  9993
2 66664  51.6336 318.5838 0007801  33.5888 326.5594 15.49391154  1288
