CCSDS_OMM_VERS = 2.0
CREATION_DATE  = 
ORIGINATOR     = 

OBJECT_NAME    = DRAGONFLY
OBJECT_ID      = 1998-067XH
CENTER_NAME    = EARTH
REF_FRAME      = TEME
TIME_SYSTEM    = UTC
MEAN_ELEMENT_THEORY = SGP/SGP4

EPOCH          = 2026-01-18T18:59:06.138528
MEAN_MOTION    = 15.92585814
ECCENTRICITY   = .00078375
INCLINATION    = 51.6191
RA_OF_ASC_NODE = 303.6059
ARG_OF_PERICENTER = 140.6202
MEAN_ANOMALY   = 219.5376

EPHEMERIS_TYPE = 0
CLASSIFICATION_TYPE = U
NORAD_CAT_ID   = 65729
ELEMENT_SET_NO = 999
REV_AT_EPOCH   = 1902
BSTAR          = .13892786E-2
MEAN_MOTION_DOT = .485553E-2
MEAN_MOTION_DDOT = .10323023E-3

CCSDS_OMM_VERS = 2.0
CREATION_DATE  = 
ORIGINATOR     = 

OBJECT_NAME    = 1998-067XK
OBJECT_ID      = 1998-067XK
CENTER_NAME    = EARTH
REF_FRAME      = TEME
TIME_SYSTEM    = UTC
MEAN_ELEMENT_THEORY = SGP/SGP4

EPOCH          = 2026-01-18T20:14:24.966528
MEAN_MOTION    = 15.74827939
ECCENTRICITY   = .00046109
INCLINATION    = 51.6277
RA_OF_ASC_NODE = 307.7913
ARG_OF_PERICENTER = 104.5019
MEAN_ANOMALY   = 255.6492

EPHEMERIS_TYPE = 0
CLASSIFICATION_TYPE = U
NORAD_CAT_ID   = 65731
ELEMENT_SET_NO = 999
REV_AT_EPOCH   = 1897
BSTAR          = .93297721E-3
MEAN_MOTION_DOT = .142537E-2
MEAN_MOTION_DDOT = 0

CCSDS_OMM_VERS = 2.0
CREATION_DATE  = 
ORIGINATOR     = 

OBJECT_NAME    = RSP-03
OBJECT_ID      = 1998-067XL
CENTER_NAME    = EARTH
REF_FRAME      = TEME
TIME_SYSTEM    = UTC
MEAN_ELEMENT_THEORY = SGP/SGP4

EPOCH          = 2026-01-18T20:49:05.100960
MEAN_MOTION    = 15.81853633
ECCENTRICITY   = .00057165
INCLINATION    = 51.6242
RA_OF_ASC_NODE = 305.6665
ARG_OF_PERICENTER = 119.2626
MEAN_ANOMALY   = 240.8948

EPHEMERIS_TYPE = 0
CLASSIFICATION_TYPE = U
NORAD_CAT_ID   = 65732
ELEMENT_SET_NO = 999
REV_AT_EPOCH   = 1901
BSTAR          = .11566943E-2
MEAN_MOTION_DOT = .245727E-2
MEAN_MOTION_DDOT = 0

CCSDS_OMM_VERS = 2.0
CREATION_DATE  = 
ORIGINATOR     = 

OBJECT_NAME    = GHS-01
OBJECT_ID      = 1998-067XM
CENTER_NAME    = EARTH
REF_FRAME      = TEME
TIME_SYSTEM    = UTC
MEAN_ELEMENT_THEORY = SGP/SGP4

EPOCH          = 2026-01-18T06:27:31.161888
MEAN_MOTION    = 16.11253535
ECCENTRICITY   = .00074705
INCLINATION    = 51.6192
RA_OF_ASC_NODE = 303.8460
ARG_OF_PERICENTER = 164.4307
MEAN_ANOMALY   = 195.6938

EPHEMERIS_TYPE = 0
CLASSIFICATION_TYPE = U
NORAD_CAT_ID   = 65733
ELEMENT_SET_NO = 999
REV_AT_EPOCH   = 1898
BSTAR          = .16375987E-2
MEAN_MOTION_DOT = .1674902E-1
MEAN_MOTION_DDOT = .21642413E-2

CCSDS_OMM_VERS = 2.0
CREATION_DATE  = 
ORIGINATOR     = 

OBJECT_NAME    = YOTSUBA-KULOVER
OBJECT_ID      = 1998-067XN
CENTER_NAME    = EARTH
REF_FRAME      = TEME
TIME_SYSTEM    = UTC
MEAN_ELEMENT_THEORY = SGP/SGP4

EPOCH          = 2026-01-18T21:00:44.964288
MEAN_MOTION    = 15.65496146
ECCENTRICITY   = .00042443
INCLINATION    = 51.6288
RA_OF_ASC_NODE = 312.5215
ARG_OF_PERICENTER = 125.7424
MEAN_ANOMALY   = 234.3967

EPHEMERIS_TYPE = 0
CLASSIFICATION_TYPE = U
NORAD_CAT_ID   = 65941
ELEMENT_SET_NO = 999
REV_AT_EPOCH   = 1566
BSTAR          = .83726105E-3
MEAN_MOTION_DOT = .85937E-3
MEAN_MOTION_DDOT = 0

CCSDS_OMM_VERS = 2.0
CREATION_DATE  = 
ORIGINATOR     = 

OBJECT_NAME    = BOTAN
OBJECT_ID      = 1998-067XP
CENTER_NAME    = EARTH
REF_FRAME      = TEME
TIME_SYSTEM    = UTC
MEAN_ELEMENT_THEORY = SGP/SGP4

EPOCH          = 2026-01-18T21:14:25.181952
MEAN_MOTION    = 15.72952020
ECCENTRICITY   = .00049862
INCLINATION    = 51.6260
RA_OF_ASC_NODE = 310.3198
ARG_OF_PERICENTER = 128.6435
MEAN_ANOMALY   = 231.5010

EPHEMERIS_TYPE = 0
CLASSIFICATION_TYPE = U
NORAD_CAT_ID   = 65942
ELEMENT_SET_NO = 999
REV_AT_EPOCH   = 1569
BSTAR          = .11467308E-2
MEAN_MOTION_DOT = .162089E-2
MEAN_MOTION_DDOT = 0

CCSDS_OMM_VERS = 2.0
CREATION_DATE  = 
ORIGINATOR     = 

OBJECT_NAME    = E-KAGAKU-1
OBJECT_ID      = 1998-067XQ
CENTER_NAME    = EARTH
REF_FRAME      = TEME
TIME_SYSTEM    = UTC
MEAN_ELEMENT_THEORY = SGP/SGP4

EPOCH          = 2026-01-18T19:28:45.872256
MEAN_MOTION    = 15.65459467
ECCENTRICITY   = .0002777
INCLINATION    = 51.6302
RA_OF_ASC_NODE = 312.8524
ARG_OF_PERICENTER = 128.8646
MEAN_ANOMALY   = 231.2598

EPHEMERIS_TYPE = 0
CLASSIFICATION_TYPE = U
NORAD_CAT_ID   = 65943
ELEMENT_SET_NO = 999
REV_AT_EPOCH   = 1565
BSTAR          = .84262578E-3
MEAN_MOTION_DOT = .8635E-3
MEAN_MOTION_DDOT = 0

CCSDS_OMM_VERS = 2.0
CREATION_DATE  = 
ORIGINATOR     = 

OBJECT_NAME    = HRC MONOBLOCK CAMERA
OBJECT_ID      = 1998-067XR
CENTER_NAME    = EARTH
REF_FRAME      = TEME
TIME_SYSTEM    = UTC
MEAN_ELEMENT_THEORY = SGP/SGP4

EPOCH          = 2026-01-18T12:39:38.560032
MEAN_MOTION    = 15.56912627
ECCENTRICITY   = .00009957
INCLINATION    = 51.6309
RA_OF_ASC_NODE = 317.6988
ARG_OF_PERICENTER = 19.7429
MEAN_ANOMALY   = 340.3601

EPHEMERIS_TYPE = 0
CLASSIFICATION_TYPE = U
NORAD_CAT_ID   = 66052
ELEMENT_SET_NO = 999
REV_AT_EPOCH   = 1456
BSTAR          = .50519703E-3
MEAN_MOTION_DOT = .36734E-3
MEAN_MOTION_DDOT = 0

CCSDS_OMM_VERS = 2.0
CREATION_DATE  = 
ORIGINATOR     = 

OBJECT_NAME    = HTV-X1
OBJECT_ID      = 2025-241A
CENTER_NAME    = EARTH
REF_FRAME      = TEME
TIME_SYSTEM    = UTC
MEAN_ELEMENT_THEORY = SGP/SGP4

EPOCH          = 2026-01-18T21:14:35.627712
MEAN_MOTION    = 15.49391154
ECCENTRICITY   = .00078011
INCLINATION    = 51.6336
RA_OF_ASC_NODE = 318.5838
ARG_OF_PERICENTER = 33.5888
MEAN_ANOMALY   = 326.5594

EPHEMERIS_TYPE = 0
CLASSIFICATION_TYPE = U
NORAD_CAT_ID   = 66174
ELEMENT_SET_NO = 999
REV_AT_EPOCH   = 51
BSTAR          = .23754211E-3
MEAN_MOTION_DOT = .12847E-3
MEAN_MOTION_DDOT = 0

CCSDS_OMM_VERS = 2.0
CREATION_DATE  = 
ORIGINATOR     = 

OBJECT_NAME    = SZ-21 MODULE
OBJECT_ID      = 2025-246C
CENTER_NAME    = EARTH
REF_FRAME      = TEME
TIME_SYSTEM    = UTC
MEAN_ELEMENT_THEORY = SGP/SGP4

EPOCH          = 2026-01-18T18:38:37.599648
MEAN_MOTION    = 15.64704861
ECCENTRICITY   = .00026092
INCLINATION    = 41.4757
RA_OF_ASC_NODE = 149.7378
ARG_OF_PERICENTER = 199.7811
MEAN_ANOMALY   = 160.2929

EPHEMERIS_TYPE = 0
CLASSIFICATION_TYPE = U
NORAD_CAT_ID   = 66515
ELEMENT_SET_NO = 999
REV_AT_EPOCH   = 1024
BSTAR          = .28386853E-3
MEAN_MOTION_DOT = .28118E-3
MEAN_MOTION_DDOT = 0

CCSDS_OMM_VERS = 2.0
CREATION_DATE  = 
ORIGINATOR     = 

OBJECT_NAME    = SHENZHOU-22
OBJECT_ID      = 2025-272A
CENTER_NAME    = EARTH
REF_FRAME      = TEME
TIME_SYSTEM    = UTC
MEAN_ELEMENT_THEORY = SGP/SGP4

EPOCH          = 2026-01-18T17:15:27.895104
MEAN_MOTION    = 15.60657147
ECCENTRICITY   = .00109934
INCLINATION    = 41.4661
RA_OF_ASC_NODE = 151.9452
ARG_OF_PERICENTER = 311.4240
MEAN_ANOMALY   = 48.5654

EPHEMERIS_TYPE = 0
CLASSIFICATION_TYPE = U
NORAD_CAT_ID   = 66645
ELEMENT_SET_NO = 999
REV_AT_EPOCH   = 26764
BSTAR          = .25294291E-3
MEAN_MOTION_DOT = .2135E-3
MEAN_MOTION_DDOT = 0

CCSDS_OMM_VERS = 2.0
CREATION_DATE  = 
ORIGINATOR     = 

OBJECT_NAME    = SOYUZ-MS 28
OBJECT_ID      = 2025-275A
CENTER_NAME    = EARTH
REF_FRAME      = TEME
TIME_SYSTEM    = UTC
MEAN_ELEMENT_THEORY = SGP/SGP4

EPOCH          = 2026-01-18T21:14:35.627712
MEAN_MOTION    = 15.49391154
ECCENTRICITY   = .00078011
INCLINATION    = 51.6336
RA_OF_ASC_NODE = 318.5838
ARG_OF_PERICENTER = 33.5888
MEAN_ANOMALY   = 326.5594

EPHEMERIS_TYPE = 0
CLASSIFICATION_TYPE = U
NORAD_CAT_ID   = 66664
ELEMENT_SET_NO = 999
REV_AT_EPOCH   = 128
BSTAR          = .23754211E-3
MEAN_MOTION_DOT = .12847E-3
MEAN_MOTION_DDOT = 0

